SENTINEL-6              
1 46984U 20086A   23269.78846022 -.00000057  00000+0  18642-4 0  9993
2 46984  66.0431  40.4260 0007850 267.9956  92.0160 12.80929905132967
